[{"OBJECT_NAME":"STARLINK-36938","OBJECT_ID":"2026-044Z","EPOCH":"2026-03-20T04:00:01.999584","MEAN_MOTION":15.80896654,"ECCENTRICITY":0.00011333,"INCLINATION":97.2813,"RA_OF_ASC_NODE":39.8518,"ARG_OF_PERICENTER":99.7778,"MEAN_ANOMALY":176.3918,"EPHEMERIS_TYPE":0,"CLASSIFICATION_TYPE":"U","NORAD_CAT_ID":68124,"ELEMENT_SET_NO":999,"REV_AT_EPOCH":308,"BSTAR":-0.00073590946,"MEAN_MOTION_DOT":-0.00139387,"MEAN_MOTION_DDOT":0},{"OBJECT_NAME":"STARLINK-36839","OBJECT_ID":"2026-044AA","EPOCH":"2026-03-20T04:00:01.999584","MEAN_MOTION":15.80792858,"ECCENTRICITY":0.000102,"INCLINATION":97.2817,"RA_OF_ASC_NODE":39.8489,"ARG_OF_PERICENTER":78.1974,"MEAN_ANOMALY":189.4663,"EPHEMERIS_TYPE":0,"CLASSIFICATION_TYPE":"U","NORAD_CAT_ID":68125,"ELEMENT_SET_NO":999,"REV_AT_EPOCH":303,"BSTAR":0.00022410519,"MEAN_MOTION_DOT":0.0004295,"MEAN_MOTION_DDOT":0},{"OBJECT_NAME":"ECHOSTAR 25","OBJECT_ID":"2026-045A","EPOCH":"2026-03-19T02:28:15.624768","MEAN_MOTION":1.79782376,"ECCENTRICITY":0.47476863,"INCLINATION":9.9581,"RA_OF_ASC_NODE":67.2584,"ARG_OF_PERICENTER":180.7477,"MEAN_ANOMALY":178.3967,"EPHEMERIS_TYPE":0,"CLASSIFICATION_TYPE":"U","NORAD_CAT_ID":68126,"ELEMENT_SET_NO":999,"REV_AT_EPOCH":19,"BSTAR":0,"MEAN_MOTION_DOT":-4.7e-7,"MEAN_MOTION_DDOT":0},{"OBJECT_NAME":"ICOR SV","OBJECT_ID":"2026-046A","EPOCH":"2026-03-13T21:49:43.816224","MEAN_MOTION":15.82606913,"ECCENTRICITY":0.0140888,"INCLINATION":123.0797,"RA_OF_ASC_NODE":224.1306,"ARG_OF_PERICENTER":188.2572,"MEAN_ANOMALY":171.617,"EPHEMERIS_TYPE":0,"CLASSIFICATION_TYPE":"U","NORAD_CAT_ID":68127,"ELEMENT_SET_NO":999,"REV_AT_EPOCH":29,"BSTAR":0.0010434,"MEAN_MOTION_DOT":0.00482503,"MEAN_MOTION_DDOT":9.2133e-5},{"OBJECT_NAME":"FIREFLY ALPHA R/B","OBJECT_ID":"2026-046B","EPOCH":"2026-03-20T07:10:30.628704","MEAN_MOTION":15.56507137,"ECCENTRICITY":0.00144922,"INCLINATION":123.0929,"RA_OF_ASC_NODE":251.9093,"ARG_OF_PERICENTER":0.0331,"MEAN_ANOMALY":0.0729,"EPHEMERIS_TYPE":0,"CLASSIFICATION_TYPE":"U","NORAD_CAT_ID":68128,"ELEMENT_SET_NO":999,"REV_AT_EPOCH":129,"BSTAR":0.00037834092,"MEAN_MOTION_DOT":0.00026976,"MEAN_MOTION_DDOT":0},{"OBJECT_NAME":"GUOWANG GROUP 20 OBJECT A","OBJECT_ID":"2026-047A","EPOCH":"2026-03-19T01:19:59.034432","MEAN_MOTION":14.05638332,"ECCENTRICITY":0.00088996,"INCLINATION":50.0054,"RA_OF_ASC_NODE":32.2608,"ARG_OF_PERICENTER":282.8383,"MEAN_ANOMALY":77.1528,"EPHEMERIS_TYPE":0,"CLASSIFICATION_TYPE":"U","NORAD_CAT_ID":68129,"ELEMENT_SET_NO":999,"REV_AT_EPOCH":88,"BSTAR":2.225374e-6,"MEAN_MOTION_DOT":-1.48e-6,"MEAN_MOTION_DDOT":0},{"OBJECT_NAME":"GUOWANG GROUP 20 OBJECT B","OBJECT_ID":"2026-047B","EPOCH":"2026-03-19T01:19:13.162080","MEAN_MOTION":14.05761022,"ECCENTRICITY":0.00075469,"INCLINATION":50.0044,"RA_OF_ASC_NODE":32.2582,"ARG_OF_PERICENTER":277.972,"MEAN_ANOMALY":82.0329,"EPHEMERIS_TYPE":0,"CLASSIFICATION_TYPE":"U","NORAD_CAT_ID":68130,"ELEMENT_SET_NO":999,"REV_AT_EPOCH":87,"BSTAR":2.531813e-6,"MEAN_MOTION_DOT":-1.48e-6,"MEAN_MOTION_DDOT":0},{"OBJECT_NAME":"GUOWANG GROUP 20 OBJECT C","OBJECT_ID":"2026-047C","EPOCH":"2026-03-19T14:57:50.348160","MEAN_MOTION":14.05810373,"ECCENTRICITY":0.00081141,"INCLINATION":50.0037,"RA_OF_ASC_NODE":29.9293,"ARG_OF_PERICENTER":287.016,"MEAN_ANOMALY":72.9856,"EPHEMERIS_TYPE":0,"CLASSIFICATION_TYPE":"U","NORAD_CAT_ID":68131,"ELEMENT_SET_NO":999,"REV_AT_EPOCH":96,"BSTAR":2.43655e-6,"MEAN_MOTION_DOT":-1.48e-6,"MEAN_MOTION_DDOT":0},{"OBJECT_NAME":"GUOWANG GROUP 20 OBJECT D","OBJECT_ID":"2026-047D","EPOCH":"2026-03-19T03:00:48.676032","MEAN_MOTION":14.05881519,"ECCENTRICITY":0.0008434,"INCLINATION":50.0078,"RA_OF_ASC_NODE":31.9684,"ARG_OF_PERICENTER":289.4802,"MEAN_ANOMALY":70.5192,"EPHEMERIS_TYPE":0,"CLASSIFICATION_TYPE":"U","NORAD_CAT_ID":68132,"ELEMENT_SET_NO":999,"REV_AT_EPOCH":88,"BSTAR":3.692038e-6,"MEAN_MOTION_DOT":-1.46e-6,"MEAN_MOTION_DDOT":0},{"OBJECT_NAME":"GUOWANG GROUP 20 OBJECT E","OBJECT_ID":"2026-047E","EPOCH":"2026-03-17T01:32:12.575616","MEAN_MOTION":14.05931996,"ECCENTRICITY":0.00068308,"INCLINATION":50.0041,"RA_OF_ASC_NODE":40.3867,"ARG_OF_PERICENTER":274.9069,"MEAN_ANOMALY":85.1056,"EPHEMERIS_TYPE":0,"CLASSIFICATION_TYPE":"U","NORAD_CAT_ID":68133,"ELEMENT_SET_NO":999,"REV_AT_EPOCH":60,"BSTAR":4.63008e-6,"MEAN_MOTION_DOT":-1.45e-6,"MEAN_MOTION_DDOT":0},{"OBJECT_NAME":"GUOWANG GROUP 20 OBJECT F","OBJECT_ID":"2026-047F","EPOCH":"2026-03-19T23:27:41.427648","MEAN_MOTION":14.06079851,"ECCENTRICITY":0.0006391,"INCLINATION":50.0091,"RA_OF_ASC_NODE":28.4795,"ARG_OF_PERICENTER":289.3722,"MEAN_ANOMALY":70.6492,"EPHEMERIS_TYPE":0,"CLASSIFICATION_TYPE":"U","NORAD_CAT_ID":68134,"ELEMENT_SET_NO":999,"REV_AT_EPOCH":100,"BSTAR":2.0813e-6,"MEAN_MOTION_DOT":-1.49e-6,"MEAN_MOTION_DDOT":0},{"OBJECT_NAME":"GUOWANG GROUP 20 OBJECT G","OBJECT_ID":"2026-047G","EPOCH":"2026-03-19T04:42:06.147936","MEAN_MOTION":14.06047332,"ECCENTRICITY":0.00073865,"INCLINATION":50.0116,"RA_OF_ASC_NODE":31.6805,"ARG_OF_PERICENTER":291.8734,"MEAN_ANOMALY":68.1386,"EPHEMERIS_TYPE":0,"CLASSIFICATION_TYPE":"U","NORAD_CAT_ID":68135,"ELEMENT_SET_NO":999,"REV_AT_EPOCH":90,"BSTAR":4.87513e-6,"MEAN_MOTION_DOT":-1.44e-6,"MEAN_MOTION_DDOT":0},{"OBJECT_NAME":"GUOWANG GROUP 20 OBJECT H","OBJECT_ID":"2026-047H","EPOCH":"2026-03-18T23:34:26.844960","MEAN_MOTION":14.06144171,"ECCENTRICITY":0.00075099,"INCLINATION":50.0089,"RA_OF_ASC_NODE":32.5476,"ARG_OF_PERICENTER":297.2561,"MEAN_ANOMALY":62.758,"EPHEMERIS_TYPE":0,"CLASSIFICATION_TYPE":"U","NORAD_CAT_ID":68136,"ELEMENT_SET_NO":999,"REV_AT_EPOCH":86,"BSTAR":4.138608e-6,"MEAN_MOTION_DOT":-1.46e-6,"MEAN_MOTION_DDOT":0},{"OBJECT_NAME":"GUOWANG GROUP 20 OBJECT J","OBJECT_ID":"2026-047J","EPOCH":"2026-03-18T23:33:39.242880","MEAN_MOTION":14.06269806,"ECCENTRICITY":0.00059129,"INCLINATION":50.0089,"RA_OF_ASC_NODE":32.5436,"ARG_OF_PERICENTER":296.0035,"MEAN_ANOMALY":64.0262,"EPHEMERIS_TYPE":0,"CLASSIFICATION_TYPE":"U","NORAD_CAT_ID":68137,"ELEMENT_SET_NO":999,"REV_AT_EPOCH":87,"BSTAR":4.840452e-6,"MEAN_MOTION_DOT":-1.44e-6,"MEAN_MOTION_DDOT":0},{"OBJECT_NAME":"CZ-8A R/B","OBJECT_ID":"2026-047K","EPOCH":"2026-03-20T07:13:18.833088","MEAN_MOTION":14.12228667,"ECCENTRICITY":0.00447465,"INCLINATION":49.9543,"RA_OF_ASC_NODE":26.7898,"ARG_OF_PERICENTER":174.8535,"MEAN_ANOMALY":185.2841,"EPHEMERIS_TYPE":0,"CLASSIFICATION_TYPE":"U","NORAD_CAT_ID":68138,"ELEMENT_SET_NO":999,"REV_AT_EPOCH":105,"BSTAR":3.9708822e-5,"MEAN_MOTION_DOT":-8.0e-7,"MEAN_MOTION_DDOT":0},{"OBJECT_NAME":"SHIYAN-30 03","OBJECT_ID":"2026-048A","EPOCH":"2026-03-20T06:43:17.066496","MEAN_MOTION":14.91679446,"ECCENTRICITY":0.00039751,"INCLINATION":34.9999,"RA_OF_ASC_NODE":80.5753,"ARG_OF_PERICENTER":294.0947,"MEAN_ANOMALY":65.9342,"EPHEMERIS_TYPE":0,"CLASSIFICATION_TYPE":"U","NORAD_CAT_ID":68139,"ELEMENT_SET_NO":999,"REV_AT_EPOCH":108,"BSTAR":0.00022117214,"MEAN_MOTION_DOT":2.24e-5,"MEAN_MOTION_DDOT":0}]
